[{"OBJECT_NAME":"YUNHAI-2 01C","OBJECT_ID":"2018-112C","EPOCH":"2026-03-09T23:40:43.339008","MEAN_MOTION":14.28951205,"ECCENTRICITY":5.385e-5,"INCLINATION":50.0116,"RA_OF_ASC_NODE":48.4892,"ARG_OF_PERICENTER":172.1642,"MEAN_ANOMALY":187.9282,"EPHEMERIS_TYPE":0,"CLASSIFICATION_TYPE":"U","NORAD_CAT_ID":43911,"ELEMENT_SET_NO":999,"REV_AT_EPOCH":37760,"BSTAR":8.3785899e-5,"MEAN_MOTION_DOT":5.2e-7,"MEAN_MOTION_DDOT":0},{"OBJECT_NAME":"CZ-6A DEB","OBJECT_ID":"2022-151YR","EPOCH":"2026-03-09T13:03:51.180768","MEAN_MOTION":14.57660002,"ECCENTRICITY":0.0129426,"INCLINATION":98.5279,"RA_OF_ASC_NODE":106.379,"ARG_OF_PERICENTER":254.5175,"MEAN_ANOMALY":104.1699,"EPHEMERIS_TYPE":0,"CLASSIFICATION_TYPE":"U","NORAD_CAT_ID":55543,"ELEMENT_SET_NO":999,"REV_AT_EPOCH":16977,"BSTAR":0.0012943,"MEAN_MOTION_DOT":6.571e-5,"MEAN_MOTION_DDOT":0}]
